STARLINK-5508           
1 55639U 23021M   26068.70241793  .00004942  00000+0  42168-3 0  9993
2 55639  70.0003 184.4106 0003393 268.7257  91.3513 14.98333687168794
ICEYE-X48               
1 63253U 25052AV  26068.70765702  .00004541  00000+0  39589-3 0  9999
2 63253  97.6979 322.3976 0002688 141.7433 218.3980 14.97356709 53782
